[{"OBJECT_NAME":"STARLINK-1036","OBJECT_ID":"2019-074AE","EPOCH":"2026-03-09T14:42:34.223904","MEAN_MOTION":15.55884463,"ECCENTRICITY":0.000315,"INCLINATION":53.0505,"RA_OF_ASC_NODE":188.9272,"ARG_OF_PERICENTER":274.6586,"MEAN_ANOMALY":85.4064,"EPHEMERIS_TYPE":0,"CLASSIFICATION_TYPE":"U","NORAD_CAT_ID":44741,"ELEMENT_SET_NO":999,"REV_AT_EPOCH":34871,"BSTAR":0.0018957,"MEAN_MOTION_DOT":0.00135506,"MEAN_MOTION_DDOT":0},{"OBJECT_NAME":"STARLINK-36600","OBJECT_ID":"2026-020G","EPOCH":"2026-03-09T22:00:01.999584","MEAN_MOTION":15.67643994,"ECCENTRICITY":0.00013173,"INCLINATION":42.9997,"RA_OF_ASC_NODE":140.9249,"ARG_OF_PERICENTER":269.1521,"MEAN_ANOMALY":338.3082,"EPHEMERIS_TYPE":0,"CLASSIFICATION_TYPE":"U","NORAD_CAT_ID":67623,"ELEMENT_SET_NO":999,"REV_AT_EPOCH":604,"BSTAR":-0.019817162,"MEAN_MOTION_DOT":-0.01966129,"MEAN_MOTION_DDOT":0}]
